GLOBALSTAR M084         
1 38040U 11080A   24358.58956633 -.00000092  00000+0  64786-4 0  9998
2 38040  51.9989 223.0576 0001234  65.3419 310.5822 12.62272773600490
GLOBALSTAR M080         
1 38041U 11080B   24358.03811038 -.00000087  00000+0  92156-4 0  9994
2 38041  52.0044 226.2835 0001144  48.6136  98.8988 12.62259705600543
GLOBALSTAR M082         
1 38042U 11080C   24359.08255677 -.00000082  00000+0  12256-3 0  9999
2 38042  52.0046 178.5293 0001322 113.6670  43.0966 12.62271605601550
GLOBALSTAR M092         
1 38043U 11080D   24358.34372266 -.00000083  00000+0  11356-3 0  9993
2 38043  52.0086 271.1465 0000896  63.2038  94.5713 12.62270887599748
GLOBALSTAR M090         
1 38044U 11080E   24358.52403595 -.00000085  00000+0  10573-3 0  9996
2 38044  51.9857 174.2633 0001080 103.9616 273.6461 12.62265263601435
GLOBALSTAR M086         
1 38045U 11080F   24358.80665111 -.00000078  00000+0  14233-3 0  9991
2 38045  51.9868 173.9398 0000347  50.8606  52.0804 12.62265075601516
GLOBALSTAR M097         
1 39072U 13005A   24358.65241894 -.00000105  00000+0 -43750-5 0  9992
2 39072  52.0051  88.7790 0000623 137.0864 223.0052 12.62268183548724
GLOBALSTAR M093         
1 39073U 13005B   24358.62534525 -.00000096  00000+0  42262-4 0  9990
2 39073  51.9818  82.4408 0000680 145.1080 214.9831 12.62277401548710
